{"type": "FeatureCollection", "features": [ {"type": "Feature", "properties": {"norad_id": 66473, "name": "STARLINK-35568", "group": "last-30-days", "lat": 4.05814397947759, "lon": -94.2675241221282, "alt_km": 414.5482258633874, "timestamp": "2025-12-09T11:33:53.574702+00:00", "meta": {"OBJECT_NAME": "STARLINK-35568", "OBJECT_ID": "2025-262T", "EPOCH": "2025-12-09T00:00:02.000160", "MEAN_MOTION": 15.5064888, "ECCENTRICITY": 0.0001632, "INCLINATION": 43.0007, "RA_OF_ASC_NODE": 92.9179, "ARG_OF_PERICENTER": 264.4625, "MEAN_ANOMALY": 96.5822, "EPHEMERIS_TYPE": 0, "CLASSIFICATION_TYPE": "U", "NORAD_CAT_ID": 66473, "ELEMENT_SET_NO": 999, "REV_AT_EPOCH": 503, "BSTAR": -0.0025328, "MEAN_MOTION_DOT": -0.00146547, "MEAN_MOTION_DDOT": 0}, "tle": {"line1": "1 66473U 25262T   25343.00002315 -.00146547  00000+0 -25328-2 0  9991", "line2": "2 66473  43.0007  92.9179 0001632 264.4625  96.5822 15.50648880  5035"}}, "geometry": {"type": "Point", "coordinates": [-94.2675241221282, 4.05814397947759]}}, {"type": "Feature", "properties": {"norad_id": 66474, "name": "STARLINK-35620", "group": "last-30-days", "lat": 2.7584745840667093, "lon": -92.86966563507958, "alt_km": 414.6346802527796, "timestamp": "2025-12-09T11:33:53.574712+00:00", "meta": {"OBJECT_NAME": "STARLINK-35620", "OBJECT_ID": "2025-262U", "EPOCH": "2025-12-09T00:00:02.000160", "MEAN_MOTION": 15.50617287, "ECCENTRICITY": 0.0001498, "INCLINATION": 43.0007, "RA_OF_ASC_NODE": 92.9131, "ARG_OF_PERICENTER": 262.2204, "MEAN_ANOMALY": 100.7569, "EPHEMERIS_TYPE": 0, "CLASSIFICATION_TYPE": "U", "NORAD_CAT_ID": 66474, "ELEMENT_SET_NO": 999, "REV_AT_EPOCH": 503, "BSTAR": -0.0019094, "MEAN_MOTION_DOT": -0.00110935, "MEAN_MOTION_DDOT": 0}, "tle": {"line1": "1 66474U 25262U   25343.00002315 -.00110935  00000+0 -19094-2 0  9997", "line2": "2 66474  43.0007  92.9131 0001498 262.2204 100.7569 15.50617287  5036"}}, "geometry": {"type": "Point", "coordinates": [-92.86966563507958, 2.7584745840667093]}}, {"type": "Feature", "properties": {"norad_id": 66475, "name": "STARLINK-35538", "group": "last-30-days", "lat": 1.4509470479820379, "lon": -91.46765883305468, "alt_km": 414.8488432609747, "timestamp": "2025-12-09T11:33:53.574729+00:00", "meta": {"OBJECT_NAME": "STARLINK-35538", "OBJECT_ID": "2025-262V", "EPOCH": "2025-12-09T00:00:02.000160", "MEAN_MOTION": 15.50613232, "ECCENTRICITY": 0.0001554, "INCLINATION": 43.0007, "RA_OF_ASC_NODE": 92.9089, "ARG_OF_PERICENTER": 266.8256, "MEAN_ANOMALY": 98.0713, "EPHEMERIS_TYPE": 0, "CLASSIFICATION_TYPE": "U", "NORAD_CAT_ID": 66475, "ELEMENT_SET_NO": 999, "REV_AT_EPOCH": 503, "BSTAR": -0.0017637, "MEAN_MOTION_DOT": -0.00102591, "MEAN_MOTION_DDOT": 0}, "tle": {"line1": "1 66475U 25262V   25343.00002315 -.00102591  00000+0 -17637-2 0  9998", "line2": "2 66475  43.0007  92.9089 0001554 266.8256  98.0713 15.50613232  5035"}}, "geometry": {"type": "Point", "coordinates": [-91.46765883305468, 1.4509470479820379]}}, {"type": "Feature", "properties": {"norad_id": 66476, "name": "STARLINK-35372", "group": "last-30-days", "lat": 0.14352248561577505, "lon": -90.06970134409312, "alt_km": 415.03673983527005, "timestamp": "2025-12-09T11:33:53.574742+00:00", "meta": {"OBJECT_NAME": "STARLINK-35372", "OBJECT_ID": "2025-262W", "EPOCH": "2025-12-09T00:00:02.000160", "MEAN_MOTION": 15.50604013, "ECCENTRICITY": 0.0001579, "INCLINATION": 43.0007, "RA_OF_ASC_NODE": 92.9033, "ARG_OF_PERICENTER": 269.2743, "MEAN_ANOMALY": 97.5499, "EPHEMERIS_TYPE": 0, "CLASSIFICATION_TYPE": "U", "NORAD_CAT_ID": 66476, "ELEMENT_SET_NO": 999, "REV_AT_EPOCH": 493, "BSTAR": -0.0016265, "MEAN_MOTION_DOT": -0.00094698, "MEAN_MOTION_DDOT": 0}, "tle": {"line1": "1 66476U 25262W   25343.00002315 -.00094698  00000+0 -16265-2 0  9993", "line2": "2 66476  43.0007  92.9033 0001579 269.2743  97.5499 15.50604013  4930"}}, "geometry": {"type": "Point", "coordinates": [-90.06970134409312, 0.14352248561577505]}}, {"type": "Feature", "properties": {"norad_id": 66477, "name": "STARLINK-35354", "group": "last-30-days", "lat": -2.466713360167331, "lon": -87.2758334235489, "alt_km": 415.1815194475821, "timestamp": "2025-12-09T11:33:53.574752+00:00", "meta": {"OBJECT_NAME": "STARLINK-35354", "OBJECT_ID": "2025-262X", "EPOCH": "2025-12-09T00:00:02.000160", "MEAN_MOTION": 15.50717999, "ECCENTRICITY": 0.0001134, "INCLINATION": 43.0007, "RA_OF_ASC_NODE": 92.8937, "ARG_OF_PERICENTER": 255.0347, "MEAN_ANOMALY": 115.5376, "EPHEMERIS_TYPE": 0, "CLASSIFICATION_TYPE": "U", "NORAD_CAT_ID": 66477, "ELEMENT_SET_NO": 999, "REV_AT_EPOCH": 503, "BSTAR": -0.0041033, "MEAN_MOTION_DOT": -0.00235132, "MEAN_MOTION_DDOT": 0}, "tle": {"line1": "1 66477U 25262X   25343.00002315 -.00235132  00000+0 -41033-2 0  9995", "line2": "2 66477  43.0007  92.8937 0001134 255.0347 115.5376 15.50717999  5038"}}, "geometry": {"type": "Point", "coordinates": [-87.2758334235489, -2.466713360167331]}}, {"type": "Feature", "properties": {"norad_id": 66478, "name": "STARLINK-35283", "group": "last-30-days", "lat": -3.7721551927773036, "lon": -85.8740106898246, "alt_km": 415.44672214281127, "timestamp": "2025-12-09T11:33:53.574762+00:00", "meta": {"OBJECT_NAME": "STARLINK-35283", "OBJECT_ID": "2025-262Y", "EPOCH": "2025-12-09T00:00:02.000160", "MEAN_MOTION": 15.50607593, "ECCENTRICITY": 0.0001608, "INCLINATION": 43.0007, "RA_OF_ASC_NODE": 92.8878, "ARG_OF_PERICENTER": 270.7722, "MEAN_ANOMALY": 101.7954, "EPHEMERIS_TYPE": 0, "CLASSIFICATION_TYPE": "U", "NORAD_CAT_ID": 66478, "ELEMENT_SET_NO": 999, "REV_AT_EPOCH": 503, "BSTAR": -0.0016527, "MEAN_MOTION_DOT": -0.00096214, "MEAN_MOTION_DDOT": 0}, "tle": {"line1": "1 66478U 25262Y   25343.00002315 -.00096214  00000+0 -16527-2 0  9992", "line2": "2 66478  43.0007  92.8878 0001608 270.7722 101.7954 15.50607593  5037"}}, "geometry": {"type": "Point", "coordinates": [-85.8740106898246, -3.7721551927773036]}}, {"type": "Feature", "properties": {"norad_id": 66479, "name": "STARLINK-35581", "group": "last-30-days", "lat": -1.1865316367618617, "lon": -88.64811890101774, "alt_km": 415.1513311260487, "timestamp": "2025-12-09T11:33:53.574772+00:00", "meta": {"OBJECT_NAME": "STARLINK-35581", "OBJECT_ID": "2025-262Z", "EPOCH": "2025-12-09T00:00:02.000160", "MEAN_MOTION": 15.50572809, "ECCENTRICITY": 0.0001538, "INCLINATION": 43.0007, "RA_OF_ASC_NODE": 92.8972, "ARG_OF_PERICENTER": 265.6241, "MEAN_ANOMALY": 103.1917, "EPHEMERIS_TYPE": 0, "CLASSIFICATION_TYPE": "U", "NORAD_CAT_ID": 66479, "ELEMENT_SET_NO": 999, "REV_AT_EPOCH": 503, "BSTAR": -0.0013607, "MEAN_MOTION_DOT": -0.00079344, "MEAN_MOTION_DDOT": 0}, "tle": {"line1": "1 66479U 25262Z   25343.00002315 -.00079344  00000+0 -13607-2 0  9994", "line2": "2 66479  43.0007  92.8972 0001538 265.6241 103.1917 15.50572809  5030"}}, "geometry": {"type": "Point", "coordinates": [-88.64811890101774, -1.1865316367618617]}}, {"type": "Feature", "properties": {"norad_id": 66480, "name": "STARLINK-35670", "group": "last-30-days", "lat": -5.08122062963106, "lon": -84.46108692429819, "alt_km": 415.57159327941736, "timestamp": "2025-12-09T11:33:53.574782+00:00", "meta": {"OBJECT_NAME": "STARLINK-35670", "OBJECT_ID": "2025-262AA", "EPOCH": "2025-12-09T00:00:02.000160", "MEAN_MOTION": 15.50647478, "ECCENTRICITY": 0.0001625, "INCLINATION": 43.0007, "RA_OF_ASC_NODE": 92.8826, "ARG_OF_PERICENTER": 269.9286, "MEAN_ANOMALY": 104.5376, "EPHEMERIS_TYPE": 0, "CLASSIFICATION_TYPE": "U", "NORAD_CAT_ID": 66480, "ELEMENT_SET_NO": 999, "REV_AT_EPOCH": 503, "BSTAR": -0.0024815, "MEAN_MOTION_DOT": -0.00143634, "MEAN_MOTION_DDOT": 0}, "tle": {"line1": "1 66480U 25262AA  25343.00002315 -.00143634  00000+0 -24815-2 0  9993", "line2": "2 66480  43.0007  92.8826 0001625 269.9286 104.5376 15.50647478  5032"}}, "geometry": {"type": "Point", "coordinates": [-84.46108692429819, -5.08122062963106]}}, {"type": "Feature", "properties": {"norad_id": 66481, "name": "STARLINK-35698", "group": "last-30-days", "lat": -6.379311684737678, "lon": -83.05072494693708, "alt_km": 415.6276319138933, "timestamp": "2025-12-09T11:33:53.574792+00:00", "meta": {"OBJECT_NAME": "STARLINK-35698", "OBJECT_ID": "2025-262AB", "EPOCH": "2025-12-09T00:00:02.000160", "MEAN_MOTION": 15.50645175, "ECCENTRICITY": 0.0001673, "INCLINATION": 43.0007, "RA_OF_ASC_NODE": 92.8776, "ARG_OF_PERICENTER": 266.7707, "MEAN_ANOMALY": 109.6152, "EPHEMERIS_TYPE": 0, "CLASSIFICATION_TYPE": "U", "NORAD_CAT_ID": 66481, "ELEMENT_SET_NO": 999, "REV_AT_EPOCH": 503, "BSTAR": -0.0024792, "MEAN_MOTION_DOT": -0.00143493, "MEAN_MOTION_DDOT": 0}, "tle": {"line1": "1 66481U 25262AB  25343.00002315 -.00143493  00000+0 -24792-2 0  9991", "line2": "2 66481  43.0007  92.8776 0001673 266.7707 109.6152 15.50645175  5033"}}, "geometry": {"type": "Point", "coordinates": [-83.05072494693708, -6.379311684737678]}}, {"type": "Feature", "properties": {"norad_id": 66482, "name": "STARLINK-35648", "group": "last-30-days", "lat": -7.670918227922076, "lon": -81.6350933872346, "alt_km": 415.7023741624653, "timestamp": "2025-12-09T11:33:53.574802+00:00", "meta": {"OBJECT_NAME": "STARLINK-35648", "OBJECT_ID": "2025-262AC", "EPOCH": "2025-12-09T00:00:02.000160", "MEAN_MOTION": 15.50619174, "ECCENTRICITY": 0.0001495, "INCLINATION": 43.0006, "RA_OF_ASC_NODE": 92.8735, "ARG_OF_PERICENTER": 263.5141, "MEAN_ANOMALY": 114.8026, "EPHEMERIS_TYPE": 0, "CLASSIFICATION_TYPE": "U", "NORAD_CAT_ID": 66482, "ELEMENT_SET_NO": 999, "REV_AT_EPOCH": 488, "BSTAR": -0.0019965, "MEAN_MOTION_DOT": -0.00115913, "MEAN_MOTION_DDOT": 0}, "tle": {"line1": "1 66482U 25262AC  25343.00002315 -.00115913  00000+0 -19965-2 0  9994", "line2": "2 66482  43.0006  92.8735 0001495 263.5141 114.8026 15.50619174  4887"}}, "geometry": {"type": "Point", "coordinates": [-81.6350933872346, -7.670918227922076]}}]}